[{"OBJECT_NAME":"GLOBALSTAR M091","OBJECT_ID":"2011-033C","EPOCH":"2026-03-09T12:19:51.159648","MEAN_MOTION":12.62270327,"ECCENTRICITY":8.483e-5,"INCLINATION":51.9991,"RA_OF_ASC_NODE":185.3633,"ARG_OF_PERICENTER":103.6138,"MEAN_ANOMALY":336.8704,"EPHEMERIS_TYPE":0,"CLASSIFICATION_TYPE":"U","NORAD_CAT_ID":37741,"ELEMENT_SET_NO":999,"REV_AT_EPOCH":67669,"BSTAR":0.00014268137,"MEAN_MOTION_DOT":-7.8e-7,"MEAN_MOTION_DDOT":0},{"OBJECT_NAME":"COSMOS 1618","OBJECT_ID":"1985-003B","EPOCH":"2026-03-09T18:10:34.552704","MEAN_MOTION":12.62994263,"ECCENTRICITY":0.00058165,"INCLINATION":82.6074,"RA_OF_ASC_NODE":156.4248,"ARG_OF_PERICENTER":96.0666,"MEAN_ANOMALY":28.6524,"EPHEMERIS_TYPE":0,"CLASSIFICATION_TYPE":"U","NORAD_CAT_ID":15470,"ELEMENT_SET_NO":999,"REV_AT_EPOCH":89682,"BSTAR":3.3920063e-5,"MEAN_MOTION_DOT":1.7e-7,"MEAN_MOTION_DDOT":0}]
